FF TELEGRAM RECEIVED  28.1.1998/12:03.40
ZCZC VLV406 1202     
GG UKBVYMYX UKBVZRZX
GG UKBBYMYT UMMSYQXX UKBVYMYX UKBVZRZX UUWWYMYX UKBBYMYX
281200 UKBBYMYX
SAEE32 UKBB 281200 RRA
UKBB 281200Z 22009MPS 8000 FEW200 02/M08 Q1007 NOSIG 68CLRD70=
NNNN                                       
 