FF TELEGRAM RECEIVED  31.12.1997/08:31.22
ZCZC VLV210 0831     
GG UKBVYMYX UKBVZRZX
GG UKBBYMYT UMMSYQXX UKBVYMYX UKBVZRZX UUWWYMYX UKBBYMYX
310830 UKBBYMYX
SAEE32 UKBB 310830 RRA
UKBB 310830Z 30005MPS 9999 OVC008 00/M00 Q1013 TEMPO  1000
     SHRASN 36290050=
NNNN                                       